GLOBALSTAR M067 [+]     
1 32263U 07048A   23268.74478194 -.00000076  00000+0  15550-3 0  9992
2 32263  51.9723  80.5874 0001692  81.5391 291.7722 12.40632005731231
GLOBALSTAR M070 [+]     
1 32264U 07048B   23268.71245700 -.00000073  00000+0  17204-3 0  9990
2 32264  51.9734 249.1171 0000531 113.1302  57.8772 12.62278686734045
GLOBALSTAR M066 [+]     
1 32265U 07048C   23268.89296477 -.00000074  00000+0  16606-3 0  9993
2 32265  51.9660 110.6403 0001089  42.3492  62.8453 12.62265029736339
GLOBALSTAR M068 [-]     
1 32266U 07048D   23268.70453409 -.00000080  00000+0  13432-3 0  9995
2 32266  51.9889  64.0792 0001114 140.3569 232.9059 12.62766667737909
GLOBALSTAR M079 [+]     
1 37188U 10054A   23268.73805856 -.00000084  00000+0  11254-3 0  9998
2 37188  52.0023 258.9762 0000432  50.3935 120.3122 12.62268036596832
GLOBALSTAR M074 [+]     
1 37189U 10054B   23268.68537891 -.00000090  00000+0  78751-4 0  9997
2 37189  52.0001 258.5565 0000409  79.2966  92.1089 12.62270088597439
GLOBALSTAR M076 [+]     
1 37190U 10054C   23269.42282094 -.00000105  00000+0 -61804-5 0  9994
2 37190  52.0021 256.4248 0000974  61.4428 103.1088 12.62261318597608
GLOBALSTAR M077 [+]     
1 37191U 10054D   23268.61938872 -.00000110  00000+0 -35084-4 0  9993
2 37191  52.0066 215.5461 0000505  73.1411  97.2763 12.62263898597511
